{
  "type": "FeatureCollection",
  "features": [
    {
      "type": "Feature",
      "properties": {
        "norad_id": 66649,
        "name": "COSMOS 2599 (RODNIK-S 24)",
        "group": "last-30-days",
        "lat": 13.066635922231692,
        "lon": 108.80371895642533,
        "alt_km": 1505.9618406102782,
        "timestamp": "2025-12-06T03:35:00.474995+00:00",
        "meta_object_name": "COSMOS 2599 (RODNIK-S 24)",
        "meta_object_id": "2025-273C",
        "meta_epoch": "2025-12-05T07:20:58.861248",
        "meta_mean_motion": 12.41671807,
        "meta_eccentricity": 0.00083078,
        "meta_inclination": 82.5023,
        "meta_ra_of_asc_node": 291.0779,
        "meta_arg_of_pericenter": 316.9576,
        "meta_mean_anomaly": 43.0853,
        "meta_ephemeris_type": 0,
        "meta_classification_type": "U",
        "meta_norad_cat_id": 66649,
        "meta_element_set_no": 999,
        "meta_rev_at_epoch": 121,
        "meta_bstar": -1.6317304e-05,
        "meta_mean_motion_dot": 8e-08,
        "meta_mean_motion_ddot": 0,
        "tle_line1": "1 66649U 25273C   25339.30623682  .00000008  00000+0 -16317-4 0  9992",
        "tle_line2": "2 66649  82.5023 291.0779 0008307 316.9576  43.0853 12.41671807  1217"
      },
      "geometry": {
        "type": "Point",
        "coordinates": [
          108.80371895642533,
          13.066635922231692
        ]
      }
    },
    {
      "type": "Feature",
      "properties": {
        "norad_id": 66650,
        "name": "BEE-1000",
        "group": "last-30-days",
        "lat": -23.46399948196476,
        "lon": 84.07417358988052,
        "alt_km": 596.3666182917405,
        "timestamp": "2025-12-06T03:35:00.475007+00:00",
        "meta_object_name": "BEE-1000",
        "meta_object_id": "2025-274A",
        "meta_epoch": "2025-12-05T07:21:10.074240",
        "meta_mean_motion": 14.91621889,
        "meta_eccentricity": 0.00104221,
        "meta_inclination": 97.7388,
        "meta_ra_of_asc_node": 266.6309,
        "meta_arg_of_pericenter": 280.3247,
        "meta_mean_anomaly": 79.6797,
        "meta_ephemeris_type": 0,
        "meta_classification_type": "U",
        "meta_norad_cat_id": 66650,
        "meta_element_set_no": 999,
        "meta_rev_at_epoch": 129,
        "meta_bstar": 0.00032210359,
        "meta_mean_motion_dot": 3.181e-05,
        "meta_mean_motion_ddot": 0,
        "tle_line1": "1 66650U 25274A   25339.30636660  .00003181  00000+0  32210-3 0  9998",
        "tle_line2": "2 66650  97.7388 266.6309 0010422 280.3247  79.6797 14.91621889  1290"
      },
      "geometry": {
        "type": "Point",
        "coordinates": [
          84.07417358988052,
          -23.46399948196476
        ]
      }
    },
    {
      "type": "Feature",
      "properties": {
        "norad_id": 66651,
        "name": "2025-274B",
        "group": "last-30-days",
        "lat": -25.682030319697677,
        "lon": 83.70915566089016,
        "alt_km": 595.8321366484352,
        "timestamp": "2025-12-06T03:35:00.475018+00:00",
        "meta_object_name": "2025-274B",
        "meta_object_id": "2025-274B",
        "meta_epoch": "2025-12-05T07:20:38.363712",
        "meta_mean_motion": 14.91710922,
        "meta_eccentricity": 0.00106956,
        "meta_inclination": 97.7386,
        "meta_ra_of_asc_node": 266.6308,
        "meta_arg_of_pericenter": 279.7009,
        "meta_mean_anomaly": 80.3002,
        "meta_ephemeris_type": 0,
        "meta_classification_type": "U",
        "meta_norad_cat_id": 66651,
        "meta_element_set_no": 999,
        "meta_rev_at_epoch": 129,
        "meta_bstar": 0.00068570235,
        "meta_mean_motion_dot": 6.855e-05,
        "meta_mean_motion_ddot": 0,
        "tle_line1": "1 66651U 25274B   25339.30599958  .00006855  00000+0  68570-3 0  9996",
        "tle_line2": "2 66651  97.7386 266.6308 0010695 279.7009  80.3002 14.91710922  1293"
      },
      "geometry": {
        "type": "Point",
        "coordinates": [
          83.70915566089016,
          -25.682030319697677
        ]
      }
    },
    {
      "type": "Feature",
      "properties": {
        "norad_id": 66652,
        "name": "2025-274C",
        "group": "last-30-days",
        "lat": -30.587138112729672,
        "lon": 82.85065074862884,
        "alt_km": 596.0475947412251,
        "timestamp": "2025-12-06T03:35:00.475028+00:00",
        "meta_object_name": "2025-274C",
        "meta_object_id": "2025-274C",
        "meta_epoch": "2025-12-05T07:19:24.887424",
        "meta_mean_motion": 14.91843597,
        "meta_eccentricity": 0.00104699,
        "meta_inclination": 97.739,
        "meta_ra_of_asc_node": 266.6325,
        "meta_arg_of_pericenter": 286.5271,
        "meta_mean_anomaly": 73.4797,
        "meta_ephemeris_type": 0,
        "meta_classification_type": "U",
        "meta_norad_cat_id": 66652,
        "meta_element_set_no": 999,
        "meta_rev_at_epoch": 129,
        "meta_bstar": 0.00045957845,
        "meta_mean_motion_dot": 4.59e-05,
        "meta_mean_motion_ddot": 0,
        "tle_line1": "1 66652U 25274C   25339.30514916  .00004590  00000+0  45958-3 0  9997",
        "tle_line2": "2 66652  97.7390 266.6325 0010469 286.5271  73.4797 14.91843597  1293"
      },
      "geometry": {
        "type": "Point",
        "coordinates": [
          82.85065074862884,
          -30.587138112729672
        ]
      }
    },
    {
      "type": "Feature",
      "properties": {
        "norad_id": 66653,
        "name": "2025-274D",
        "group": "last-30-days",
        "lat": -30.84712541229179,
        "lon": 82.8026123154177,
        "alt_km": 595.302519476746,
        "timestamp": "2025-12-06T03:35:00.475040+00:00",
        "meta_object_name": "2025-274D",
        "meta_object_id": "2025-274D",
        "meta_epoch": "2025-12-05T07:19:20.633952",
        "meta_mean_motion": 14.91849081,
        "meta_eccentricity": 0.00112727,
        "meta_inclination": 97.7388,
        "meta_ra_of_asc_node": 266.6323,
        "meta_arg_of_pericenter": 282.2972,
        "meta_mean_anomaly": 77.6985,
        "meta_ephemeris_type": 0,
        "meta_classification_type": "U",
        "meta_norad_cat_id": 66653,
        "meta_element_set_no": 999,
        "meta_rev_at_epoch": 129,
        "meta_bstar": 0.00042671241,
        "meta_mean_motion_dot": 4.259e-05,
        "meta_mean_motion_ddot": 0,
        "tle_line1": "1 66653U 25274D   25339.30509993  .00004259  00000+0  42671-3 0  9998",
        "tle_line2": "2 66653  97.7388 266.6323 0011272 282.2972  77.6985 14.91849081  1292"
      },
      "geometry": {
        "type": "Point",
        "coordinates": [
          82.8026123154177,
          -30.84712541229179
        ]
      }
    },
    {
      "type": "Feature",
      "properties": {
        "norad_id": 66654,
        "name": "JACK E",
        "group": "last-30-days",
        "lat": -36.322868771665426,
        "lon": 81.7260770249715,
        "alt_km": 594.3986103064299,
        "timestamp": "2025-12-06T03:35:00.475050+00:00",
        "meta_object_name": "JACK E",
        "meta_object_id": "2025-274E",
        "meta_epoch": "2025-12-05T07:17:59.445600",
        "meta_mean_motion": 14.92018904,
        "meta_eccentricity": 0.00118187,
        "meta_inclination": 97.7389,
        "meta_ra_of_asc_node": 266.634,
        "meta_arg_of_pericenter": 283.6965,
        "meta_mean_anomaly": 76.2938,
        "meta_ephemeris_type": 0,
        "meta_classification_type": "U",
        "meta_norad_cat_id": 66654,
        "meta_element_set_no": 999,
        "meta_rev_at_epoch": 129,
        "meta_bstar": 0.00053100408,
        "meta_mean_motion_dot": 5.337e-05,
        "meta_mean_motion_ddot": 0,
        "tle_line1": "1 66654U 25274E   25339.30416025  .00005337  00000+0  53100-3 0  9999",
        "tle_line2": "2 66654  97.7389 266.6340 0011818 283.6965  76.2938 14.92018904  1292"
      },
      "geometry": {
        "type": "Point",
        "coordinates": [
          81.7260770249715,
          -36.322868771665426
        ]
      }
    },
    {
      "type": "Feature",
      "properties": {
        "norad_id": 66655,
        "name": "2025-274F",
        "group": "last-30-days",
        "lat": -41.78030170031954,
        "lon": 80.4886734645286,
        "alt_km": 597.3529098097979,
        "timestamp": "2025-12-06T03:35:00.475066+00:00",
        "meta_object_name": "2025-274F",
        "meta_object_id": "2025-274F",
        "meta_epoch": "2025-12-05T07:16:42.301632",
        "meta_mean_motion": 14.92235438,
        "meta_eccentricity": 0.00076843,
        "meta_inclination": 97.7362,
        "meta_ra_of_asc_node": 266.6343,
        "meta_arg_of_pericenter": 312.6423,
        "meta_mean_anomaly": 47.4148,
        "meta_ephemeris_type": 0,
        "meta_classification_type": "U",
        "meta_norad_cat_id": 66655,
        "meta_element_set_no": 999,
        "meta_rev_at_epoch": 129,
        "meta_bstar": 0.00039759604,
        "meta_mean_motion_dot": 4.001e-05,
        "meta_mean_motion_ddot": 0,
        "tle_line1": "1 66655U 25274F   25339.30326738  .00004001  00000+0  39760-3 0  9994",
        "tle_line2": "2 66655  97.7362 266.6343 0007684 312.6423  47.4148 14.92235438  1291"
      },
      "geometry": {
        "type": "Point",
        "coordinates": [
          80.4886734645286,
          -41.78030170031954
        ]
      }
    }
  ]
}